{
    "links": {
        "self": "http://www.neowsapp.com/rest/v1/neo/3698549?api_key=iIulBulltgU6a56xZRHN4H3l9WmuAYTsLGpBGhQ2"
    },
    "id": "3698549",
    "neo_reference_id": "3698549",
    "name": "(2014 HN198)",
    "designation": "2014 HN198",
    "nasa_jpl_url": "http://ssd.jpl.nasa.gov/sbdb.cgi?sstr=3698549",
    "absolute_magnitude_h": 24.6,
    "estimated_diameter": {
        "kilometers": {
            "estimated_diameter_min": 0.0319561887,
            "estimated_diameter_max": 0.0714562102
        },
        "meters": {
            "estimated_diameter_min": 31.9561886721,
            "estimated_diameter_max": 71.4562101727
        },
        "miles": {
            "estimated_diameter_min": 0.0198566489,
            "estimated_diameter_max": 0.0444008168
        },
        "feet": {
            "estimated_diameter_min": 104.8431420431,
            "estimated_diameter_max": 234.436392583
        }
    },
    "is_potentially_hazardous_asteroid": false,
    "close_approach_data": [
        {
            "close_approach_date": "2014-04-05",
            "close_approach_date_full": "2014-Apr-05 23:31",
            "epoch_date_close_approach": 1396740660000,
            "relative_velocity": {
                "kilometers_per_second": "12.110424416",
                "kilometers_per_hour": "43597.5278976554",
                "miles_per_hour": "27089.8083761848"
            },
            "miss_distance": {
                "astronomical": "0.0433538732",
                "lunar": "16.8646566748",
                "kilometers": "6485647.086970084",
                "miles": "4029994.2265277992"
            },
            "orbiting_body": "Earth"
        }
    ],
    "orbital_data": {
        "orbit_id": "7",
        "orbit_determination_date": "2019-02-13 06:55:42",
        "first_observation_date": "2014-04-28",
        "last_observation_date": "2014-05-03",
        "data_arc_in_days": 5,
        "observations_used": 22,
        "orbit_uncertainty": "9",
        "minimum_orbit_intersection": ".0195265",
        "jupiter_tisserand_invariant": "3.555",
        "epoch_osculation": "2456777.5",
        "eccentricity": ".5770260061832757",
        "semi_major_axis": "2.058003304700593",
        "inclination": "2.58878590530201",
        "ascending_node_longitude": "304.8409246820967",
        "orbital_period": "1078.369332543518",
        "perihelion_distance": ".8704818770772268",
        "perihelion_argument": "200.6766596735883",
        "aphelion_distance": "3.245524732323959",
        "perihelion_time": "2456717.373784744029",
        "mean_anomaly": "20.07237858025423",
        "mean_motion": ".3338373868170738",
        "equinox": "J2000",
        "orbit_class": {
            "orbit_class_type": "APO",
            "orbit_class_description": "Near-Earth asteroid orbits which cross the Earth’s orbit similar to that of 1862 Apollo",
            "orbit_class_range": "a (semi-major axis) > 1.0 AU; q (perihelion) < 1.017 AU"
        }
    },
    "is_sentry_object": false
}